[
    {
        "Altitude(m)": 553605.3876848718,
        "Argument of Periapsis(deg)": 0.013245982221427002,
        "Eccentricity": 0.0,
        "Inclination(deg)": 53.0,
        "Latitude(deg)": 7.057774933761948,
        "Longitude(deg)": 168.0995145660837,
        "Mean Anomaly(deg)": 171.09228573515514,
        "RAAN(deg)": 94.98028673705603,
        "Satellite Name": "Starlink Shell 1 427",
        "Satellite Number": 427,
        "Semi-Major Axis(m)": 6931778.249405717,
        "Time(s)": 380
    },
    {
        "Altitude(m)": 553632.772142555,
        "Argument of Periapsis(deg)": 0.013594560700938237,
        "Eccentricity": 0.0,
        "Inclination(deg)": 53.0,
        "Latitude(deg)": 6.555817506821663,
        "Longitude(deg)": 168.4402930101705,
        "Mean Anomaly(deg)": 171.71911693871195,
        "RAAN(deg)": 94.97976796697857,
        "Satellite Name": "Starlink Shell 1 427",
        "Satellite Number": 427,
        "Semi-Major Axis(m)": 6931778.249405717,
        "Time(s)": 390
    },
    {
        "Altitude(m)": 553662.9423020015,
        "Argument of Periapsis(deg)": 0.013943139180449475,
        "Eccentricity": 0.0,
        "Inclination(deg)": 53.0,
        "Latitude(deg)": 6.053566836599773,
        "Longitude(deg)": 168.78030298622977,
        "Mean Anomaly(deg)": 172.3459481422686,
        "RAAN(deg)": 94.9792491969011,
        "Satellite Name": "Starlink Shell 1 427",
        "Satellite Number": 427,
        "Semi-Major Axis(m)": 6931778.249405717,
        "Time(s)": 400
    },
    {
        "Altitude(m)": 553695.9070161183,
        "Argument of Periapsis(deg)": 0.014291717659960712,
        "Eccentricity": 0.0,
        "Inclination(deg)": 53.0,
        "Latitude(deg)": 5.5510467908532695,
        "Longitude(deg)": 169.11960458052096,
        "Mean Anomaly(deg)": 172.9727793458253,
        "RAAN(deg)": 94.97873042682362,
        "Satellite Name": "Starlink Shell 1 427",
        "Satellite Number": 427,
        "Semi-Major Axis(m)": 6931778.249405717,
        "Time(s)": 410
    },
    {
        "Altitude(m)": 553731.6738169461,
        "Argument of Periapsis(deg)": 0.014640296139471948,
        "Eccentricity": 0.0,
        "Inclination(deg)": 53.0,
        "Latitude(deg)": 5.048281089714326,
        "Longitude(deg)": 169.45825706353241,
        "Mean Anomaly(deg)": 173.59961054938202,
        "RAAN(deg)": 94.97821165674615,
        "Satellite Name": "Starlink Shell 1 427",
        "Satellite Number": 427,
        "Semi-Major Axis(m)": 6931778.249405717,
        "Time(s)": 420
    },
    {
        "Altitude(m)": 553770.248909132,
        "Argument of Periapsis(deg)": 0.014988874618983185,
        "Eccentricity": 0.0,
        "Inclination(deg)": 53.0,
        "Latitude(deg)": 4.545293318144711,
        "Longitude(deg)": 169.79631942003252,
        "Mean Anomaly(deg)": 174.22644175293874,
        "RAAN(deg)": 94.97769288666868,
        "Satellite Name": "Starlink Shell 1 427",
        "Satellite Number": 427,
        "Semi-Major Axis(m)": 6931778.249405717,
        "Time(s)": 430
    },
    {
        "Altitude(m)": 553811.6371640578,
        "Argument of Periapsis(deg)": 0.015337453098494424,
        "Eccentricity": 0.0,
        "Inclination(deg)": 53.0,
        "Latitude(deg)": 4.042106938262337,
        "Longitude(deg)": 170.1338508790413,
        "Mean Anomaly(deg)": 174.85327295649546,
        "RAAN(deg)": 94.9771741165912,
        "Satellite Name": "Starlink Shell 1 427",
        "Satellite Number": 427,
        "Semi-Major Axis(m)": 6931778.249405717,
        "Time(s)": 440
    },
    {
        "Altitude(m)": 553855.842114627,
        "Argument of Periapsis(deg)": 0.01568603157800566,
        "Eccentricity": 0.0,
        "Inclination(deg)": 53.0,
        "Latitude(deg)": 3.538745301554293,
        "Longitude(deg)": 170.47090993085453,
        "Mean Anomaly(deg)": 175.48010416005215,
        "RAAN(deg)": 94.97665534651374,
        "Satellite Name": "Starlink Shell 1 427",
        "Satellite Number": 427,
        "Semi-Major Axis(m)": 6931778.249405717,
        "Time(s)": 450
    },
    {
        "Altitude(m)": 553902.865950766,
        "Argument of Periapsis(deg)": 0.0160346100575169,
        "Eccentricity": 0.0,
        "Inclination(deg)": 53.0,
        "Latitude(deg)": 3.0352316609829075,
        "Longitude(deg)": 170.80755485687243,
        "Mean Anomaly(deg)": 176.10693536360887,
        "RAAN(deg)": 94.97613657643626,
        "Satellite Name": "Starlink Shell 1 427",
        "Satellite Number": 427,
        "Semi-Major Axis(m)": 6931778.249405717,
        "Time(s)": 460
    },
    {
        "Altitude(m)": 553952.7095155225,
        "Argument of Periapsis(deg)": 0.016383188537028134,
        "Eccentricity": 0.0,
        "Inclination(deg)": 53.0,
        "Latitude(deg)": 2.5315891829979074,
        "Longitude(deg)": 171.14384425936532,
        "Mean Anomaly(deg)": 176.73376656716553,
        "RAAN(deg)": 94.97561780635878,
        "Satellite Name": "Starlink Shell 1 427",
        "Satellite Number": 427,
        "Semi-Major Axis(m)": 6931778.249405717,
        "Time(s)": 470
    },
    {
        "Altitude(m)": 554005.3723018876,
        "Argument of Periapsis(deg)": 0.01673176701653937,
        "Eccentricity": 0.0,
        "Inclination(deg)": 53.0,
        "Latitude(deg)": 2.0278409594699265,
        "Longitude(deg)": 171.47983607830972,
        "Mean Anomaly(deg)": 177.36059777072236,
        "RAAN(deg)": 94.9750990362813,
        "Satellite Name": "Starlink Shell 1 427",
        "Satellite Number": 427,
        "Semi-Major Axis(m)": 6931778.249405717,
        "Time(s)": 480
    },
    {
        "Altitude(m)": 554060.8524502981,
        "Argument of Periapsis(deg)": 0.017080345496050607,
        "Eccentricity": 0.0,
        "Inclination(deg)": 53.0,
        "Latitude(deg)": 1.5240100195515338,
        "Longitude(deg)": 171.8155881210475,
        "Mean Anomaly(deg)": 177.98742897427906,
        "RAAN(deg)": 94.97458026620384,
        "Satellite Name": "Starlink Shell 1 427",
        "Satellite Number": 427,
        "Semi-Major Axis(m)": 6931778.249405717,
        "Time(s)": 490
    },
    {
        "Altitude(m)": 554119.1467467534,
        "Argument of Periapsis(deg)": 0.017428923975561842,
        "Eccentricity": 0.0,
        "Inclination(deg)": 53.0,
        "Latitude(deg)": 1.0201193414778902,
        "Longitude(deg)": 172.15115859190269,
        "Mean Anomaly(deg)": 178.61426017783572,
        "RAAN(deg)": 94.97406149612637,
        "Satellite Name": "Starlink Shell 1 427",
        "Satellite Number": 427,
        "Semi-Major Axis(m)": 6931778.249405717,
        "Time(s)": 500
    },
    {
        "Altitude(m)": 554180.2506216945,
        "Argument of Periapsis(deg)": 0.01777750245507308,
        "Eccentricity": 0.0,
        "Inclination(deg)": 53.0,
        "Latitude(deg)": 0.5161918643236614,
        "Longitude(deg)": 172.48660510888905,
        "Mean Anomaly(deg)": 179.24109138139247,
        "RAAN(deg)": 94.9735427260489,
        "Satellite Name": "Starlink Shell 1 427",
        "Satellite Number": 427,
        "Semi-Major Axis(m)": 6931778.249405717,
        "Time(s)": 510
    },
    {
        "Altitude(m)": 554244.158149499,
        "Argument of Periapsis(deg)": 0.018126080934584315,
        "Eccentricity": 0.0,
        "Inclination(deg)": 53.0,
        "Latitude(deg)": 0.012250499720727871,
        "Longitude(deg)": 172.82198523326213,
        "Mean Anomaly(deg)": 179.86792258494916,
        "RAAN(deg)": 94.97302395597143,
        "Satellite Name": "Starlink Shell 1 427",
        "Satellite Number": 427,
        "Semi-Major Axis(m)": 6931778.249405717,
        "Time(s)": 520
    },
    {
        "Altitude(m)": 554310.8620486645,
        "Argument of Periapsis(deg)": 0.018474659414095554,
        "Eccentricity": 0.0,
        "Inclination(deg)": 53.0,
        "Latitude(deg)": -0.4916818564502133,
        "Longitude(deg)": 173.15735699905173,
        "Mean Anomaly(deg)": 180.4947537885059,
        "RAAN(deg)": 94.97250518589394,
        "Satellite Name": "Starlink Shell 1 427",
        "Satellite Number": 427,
        "Semi-Major Axis(m)": 6931778.249405717,
        "Time(s)": 530
    },
    {
        "Altitude(m)": 554380.3536827015,
        "Argument of Periapsis(deg)": 0.018823237893606792,
        "Eccentricity": 0.0,
        "Inclination(deg)": 53.0,
        "Latitude(deg)": -0.9955823123776337,
        "Longitude(deg)": 173.4927779297068,
        "Mean Anomaly(deg)": 181.12158499206262,
        "RAAN(deg)": 94.97198641581647,
        "Satellite Name": "Starlink Shell 1 427",
        "Satellite Number": 427,
        "Semi-Major Axis(m)": 6931778.249405717,
        "Time(s)": 540
    },
    {
        "Altitude(m)": 554452.6230616655,
        "Argument of Periapsis(deg)": 0.019171816373118027,
        "Eccentricity": 0.0,
        "Inclination(deg)": 53.0,
        "Latitude(deg)": -1.4994279686435752,
        "Longitude(deg)": 173.8283055676085,
        "Mean Anomaly(deg)": 181.7484161956193,
        "RAAN(deg)": 94.97146764573901,
        "Satellite Name": "Starlink Shell 1 427",
        "Satellite Number": 427,
        "Semi-Major Axis(m)": 6931778.249405717,
        "Time(s)": 550
    },
    {
        "Altitude(m)": 554527.6588443961,
        "Argument of Periapsis(deg)": 0.019520394852629266,
        "Eccentricity": 0.0,
        "Inclination(deg)": 53.0,
        "Latitude(deg)": -2.003195906539445,
        "Longitude(deg)": 174.16399800358627,
        "Mean Anomaly(deg)": 182.3752473991761,
        "RAAN(deg)": 94.97094887566153,
        "Satellite Name": "Starlink Shell 1 427",
        "Satellite Number": 427,
        "Semi-Major Axis(m)": 6931778.249405717,
        "Time(s)": 560
    }
]